{
  "type": "FeatureCollection",
  "features": [
    {
      "type": "Feature",
      "properties": {
        "norad_id": 66323,
        "name": "STARLINK-35309",
        "group": "last-30-days",
        "lat": 42.84874025490463,
        "lon": 126.04442469297005,
        "alt_km": 409.90508097698967,
        "timestamp": "2025-12-04T21:36:14.650360+00:00",
        "meta_object_name": "STARLINK-35309",
        "meta_object_id": "2025-253E",
        "meta_epoch": "2025-12-04T11:55:34.293216",
        "meta_mean_motion": 15.50737349,
        "meta_eccentricity": 0.00037961,
        "meta_inclination": 43.0008,
        "meta_ra_of_asc_node": 32.9093,
        "meta_arg_of_pericenter": 268.5168,
        "meta_mean_anomaly": 91.5257,
        "meta_ephemeris_type": 0,
        "meta_classification_type": "U",
        "meta_norad_cat_id": 66323,
        "meta_element_set_no": 999,
        "meta_rev_at_epoch": 565,
        "meta_bstar": 0.0030260945,
        "meta_mean_motion_dot": 0.00182433,
        "meta_mean_motion_ddot": 0,
        "tle_line1": "1 66323U 25253E   25338.49692469  .00182433  00000+0  30261-2 0  9991",
        "tle_line2": "2 66323  43.0008  32.9093 0003796 268.5168  91.5257 15.50737349  5653"
      },
      "geometry": {
        "type": "Point",
        "coordinates": [
          126.04442469297005,
          42.84874025490463
        ]
      }
    },
    {
      "type": "Feature",
      "properties": {
        "norad_id": 66324,
        "name": "STARLINK-35506",
        "group": "last-30-days",
        "lat": 42.863215533782,
        "lon": 115.38436650024721,
        "alt_km": 408.5299457407218,
        "timestamp": "2025-12-04T21:36:14.650371+00:00",
        "meta_object_name": "STARLINK-35506",
        "meta_object_id": "2025-253F",
        "meta_epoch": "2025-12-03T12:46:12.432576",
        "meta_mean_motion": 15.5059009,
        "meta_eccentricity": 8.705e-05,
        "meta_inclination": 43.0006,
        "meta_ra_of_asc_node": 38.5692,
        "meta_arg_of_pericenter": 276.2742,
        "meta_mean_anomaly": 83.8019,
        "meta_ephemeris_type": 0,
        "meta_classification_type": "U",
        "meta_norad_cat_id": 66324,
        "meta_element_set_no": 999,
        "meta_rev_at_epoch": 550,
        "meta_bstar": 0.00045167229,
        "meta_mean_motion_dot": 0.00026255,
        "meta_mean_motion_ddot": 0,
        "tle_line1": "1 66324U 25253F   25337.53208834  .00026255  00000+0  45167-3 0  9996",
        "tle_line2": "2 66324  43.0006  38.5692 0000870 276.2742  83.8019 15.50590090  5507"
      },
      "geometry": {
        "type": "Point",
        "coordinates": [
          115.38436650024721,
          42.863215533782
        ]
      }
    },
    {
      "type": "Feature",
      "properties": {
        "norad_id": 66325,
        "name": "STARLINK-35504",
        "group": "last-30-days",
        "lat": 7.4027751407184725,
        "lon": 38.76752064960981,
        "alt_km": 443.10793789014406,
        "timestamp": "2025-12-04T21:36:14.650385+00:00",
        "meta_object_name": "STARLINK-35504",
        "meta_object_id": "2025-253G",
        "meta_epoch": "2025-12-04T14:00:01.000224",
        "meta_mean_motion": 15.40624004,
        "meta_eccentricity": 0.00010952,
        "meta_inclination": 43.0004,
        "meta_ra_of_asc_node": 32.5789,
        "meta_arg_of_pericenter": 259.0714,
        "meta_mean_anomaly": 152.5867,
        "meta_ephemeris_type": 0,
        "meta_classification_type": "U",
        "meta_norad_cat_id": 66325,
        "meta_element_set_no": 999,
        "meta_rev_at_epoch": 561,
        "meta_bstar": 0.0020831262,
        "meta_mean_motion_dot": 0.00087496,
        "meta_mean_motion_ddot": 0,
        "tle_line1": "1 66325U 25253G   25338.58334491  .00087496  00000+0  20831-2 0  9996",
        "tle_line2": "2 66325  43.0004  32.5789 0001095 259.0714 152.5867 15.40624004  5614"
      },
      "geometry": {
        "type": "Point",
        "coordinates": [
          38.76752064960981,
          7.4027751407184725
        ]
      }
    },
    {
      "type": "Feature",
      "properties": {
        "norad_id": 66326,
        "name": "STARLINK-35479",
        "group": "last-30-days",
        "lat": 42.73071290272616,
        "lon": 128.10296338548974,
        "alt_km": 408.92012517601233,
        "timestamp": "2025-12-04T21:36:14.650396+00:00",
        "meta_object_name": "STARLINK-35479",
        "meta_object_id": "2025-253H",
        "meta_epoch": "2025-12-04T15:00:38.013408",
        "meta_mean_motion": 15.50615042,
        "meta_eccentricity": 0.00014153,
        "meta_inclination": 43.0005,
        "meta_ra_of_asc_node": 32.1514,
        "meta_arg_of_pericenter": 287.7439,
        "meta_mean_anomaly": 72.3267,
        "meta_ephemeris_type": 0,
        "meta_classification_type": "U",
        "meta_norad_cat_id": 66326,
        "meta_element_set_no": 999,
        "meta_rev_at_epoch": 567,
        "meta_bstar": 0.0015910086,
        "meta_mean_motion_dot": 0.00094247,
        "meta_mean_motion_ddot": 0,
        "tle_line1": "1 66326U 25253H   25338.62543997  .00094247  00000+0  15910-2 0  9999",
        "tle_line2": "2 66326  43.0005  32.1514 0001415 287.7439  72.3267 15.50615042  5678"
      },
      "geometry": {
        "type": "Point",
        "coordinates": [
          128.10296338548974,
          42.73071290272616
        ]
      }
    },
    {
      "type": "Feature",
      "properties": {
        "norad_id": 66327,
        "name": "STARLINK-35507",
        "group": "last-30-days",
        "lat": 42.693338501499035,
        "lon": 112.46673090715296,
        "alt_km": 409.4023788369386,
        "timestamp": "2025-12-04T21:36:14.650409+00:00",
        "meta_object_name": "STARLINK-35507",
        "meta_object_id": "2025-253J",
        "meta_epoch": "2025-12-04T14:00:01.000224",
        "meta_mean_motion": 15.50534019,
        "meta_eccentricity": 0.00016786,
        "meta_inclination": 43.0009,
        "meta_ra_of_asc_node": 32.4301,
        "meta_arg_of_pericenter": 283.5221,
        "meta_mean_anomaly": 189.9104,
        "meta_ephemeris_type": 0,
        "meta_classification_type": "U",
        "meta_norad_cat_id": 66327,
        "meta_element_set_no": 999,
        "meta_rev_at_epoch": 571,
        "meta_bstar": 0.00033559058,
        "meta_mean_motion_dot": 0.00019363,
        "meta_mean_motion_ddot": 0,
        "tle_line1": "1 66327U 25253J   25338.58334491  .00019363  00000+0  33559-3 0  9998",
        "tle_line2": "2 66327  43.0009  32.4301 0001678 283.5221 189.9104 15.50534019  5718"
      },
      "geometry": {
        "type": "Point",
        "coordinates": [
          112.46673090715296,
          42.693338501499035
        ]
      }
    },
    {
      "type": "Feature",
      "properties": {
        "norad_id": 66328,
        "name": "STARLINK-35460",
        "group": "last-30-days",
        "lat": 15.78503956169181,
        "lon": 48.37963817926299,
        "alt_km": 441.3476326805476,
        "timestamp": "2025-12-04T21:36:14.650420+00:00",
        "meta_object_name": "STARLINK-35460",
        "meta_object_id": "2025-253K",
        "meta_epoch": "2025-12-04T14:00:01.000224",
        "meta_mean_motion": 15.40757139,
        "meta_eccentricity": 0.00015296,
        "meta_inclination": 43.0001,
        "meta_ra_of_asc_node": 32.5465,
        "meta_arg_of_pericenter": 273.985,
        "meta_mean_anomaly": 150.0999,
        "meta_ephemeris_type": 0,
        "meta_classification_type": "U",
        "meta_norad_cat_id": 66328,
        "meta_element_set_no": 999,
        "meta_rev_at_epoch": 571,
        "meta_bstar": 0.0042143826,
        "meta_mean_motion_dot": 0.00180306,
        "meta_mean_motion_ddot": 0,
        "tle_line1": "1 66328U 25253K   25338.58334491  .00180306  00000+0  42144-2 0  9994",
        "tle_line2": "2 66328  43.0001  32.5465 0001529 273.9850 150.0999 15.40757139  5719"
      },
      "geometry": {
        "type": "Point",
        "coordinates": [
          48.37963817926299,
          15.78503956169181
        ]
      }
    },
    {
      "type": "Feature",
      "properties": {
        "norad_id": 66329,
        "name": "STARLINK-35505",
        "group": "last-30-days",
        "lat": 42.716922240833696,
        "lon": 112.74063552680694,
        "alt_km": 409.33547642933627,
        "timestamp": "2025-12-04T21:36:14.650433+00:00",
        "meta_object_name": "STARLINK-35505",
        "meta_object_id": "2025-253L",
        "meta_epoch": "2025-12-04T10:25:17.613696",
        "meta_mean_motion": 15.50609866,
        "meta_eccentricity": 0.00024194,
        "meta_inclination": 43.0053,
        "meta_ra_of_asc_node": 33.3018,
        "meta_arg_of_pericenter": 270.3713,
        "meta_mean_anomaly": 89.687,
        "meta_ephemeris_type": 0,
        "meta_classification_type": "U",
        "meta_norad_cat_id": 66329,
        "meta_element_set_no": 999,
        "meta_rev_at_epoch": 564,
        "meta_bstar": 0.0026927657,
        "meta_mean_motion_dot": 0.00161104,
        "meta_mean_motion_ddot": 0,
        "tle_line1": "1 66329U 25253L   25338.43423164  .00161104  00000+0  26928-2 0  9992",
        "tle_line2": "2 66329  43.0053  33.3018 0002419 270.3713  89.6870 15.50609866  5649"
      },
      "geometry": {
        "type": "Point",
        "coordinates": [
          112.74063552680694,
          42.716922240833696
        ]
      }
    }
  ]
}